GLOBALSTAR M057 [-]     
1 25943U 99058A   23330.46925741 -.00000028  00000+0  58947-3 0  9999
2 25943  51.9951 162.1454 0001269 290.8201  69.2513 12.24779892 97247
GLOBALSTAR M059 [-]     
1 25944U 99058B   23330.35452729 -.00000007  00000+0  98394-3 0  9996
2 25944  52.0028 306.0149 0000529 353.9173 154.9084 11.99956175505759
GLOBALSTAR M056 [-]     
1 25945U 99058C   23330.29214767  .00000036  00000+0  14390-2 0  9992
2 25945  51.9975 322.7589 0000971 122.4638 339.2293 12.04773047 94056
GLOBALSTAR M031 [-]     
1 25946U 99058D   23330.12070153  .00000004  00000+0  95769-3 0  9999
2 25946  51.9960 249.5958 0002181  87.3509  19.5036 12.15998414 95310
GLOBALSTAR M039 [-]     
1 25961U 99062A   23330.08556803  .00000000  00000+0  57646-3 0  9995
2 25961  51.9826 202.0114 0002998 144.9630 215.1434 12.62275840108344
GLOBALSTAR M034 [-]     
1 25962U 99062B   23330.54872556 -.00000061  00000+0  32142-3 0  9995
2 25962  51.9916  49.4810 0014206  50.7751  52.4923 11.79418306 71295
GLOBALSTAR M029 [-]     
1 25963U 99062C   23330.62678361 -.00000027  00000+0  73221-3 0  9998
2 25963  51.9780 193.8008 0003825  80.5124 295.1384 11.99871067100871
GLOBALSTAR M061 [-]     
1 25964U 99062D   23330.12348977 -.00000034  00000+0  76470-3 0  9998
2 25964  51.9783 227.0835 0006141 345.5798 163.2550 11.76754579 54183
